STARLINK-2511           
1 48332U 21036BJ  21221.80316318  .00000561  00000-0  56577-4 0  9996
2 48332  53.0559  51.4869 0001394 110.7903 249.3235 15.06395370 15890
STARLINK-2518           
1 48333U 21036BK  21221.79947247 -.00000716  00000-0 -29133-4 0  9998
2 48333  53.0601  51.4987 0001930  98.9508 261.1699 15.06394179 15896
STARLINK-2470           
1 48334U 21036BL  21221.79578708 -.00001086  00000-0 -54045-4 0  9992
2 48334  53.0629  51.5053 0001635 110.6970 249.4195 15.06398259 15892
STARLINK-2441           
1 48335U 21036BM  21221.79210830  .00000417  00000-0  46914-4 0  9993
2 48335  53.0636  51.5112 0001684  96.5173 263.6008 15.06397397 15891
YAOGAN-34               
1 48340U 21037A   21221.90081555 -.00000070  00000-0  33640-4 0  9991
2 48340  63.4078  17.3390 0015968 338.9849  21.0518 13.45207621 13669
STARLINK-2613           
1 48353U 21038A   21221.59859304  .00000768  00000-0  70426-4 0  9992
2 48353  53.0572 312.4129 0000836 147.9171 212.1869 15.06403892 14851
STARLINK-2674           
1 48354U 21038B   21221.52855656  .00000345  00000-0  42057-4 0  9992
2 48354  53.0563 312.7219 0000971 147.3073 212.7976 15.06396704 14847
STARLINK-2635           
1 48355U 21038C   21221.65756042 -.00000860  00000-0 -38850-4 0  9996
2 48355  53.0561 312.1446 0001085 163.9378 196.1646 15.06398811 14863
STARLINK-2637           
1 48356U 21038D   21221.55283108 -.00001075  00000-0 -60224-4 0  9993
2 48356  53.0560 311.4478 0000830 115.5367 244.5706 15.02323001 14868
STARLINK-2636           
1 48357U 21038E   21221.71653914  .00000771  00000-0  70615-4 0  9993
2 48357  53.0557 311.8771 0000796 147.6524 212.4513 15.06393263 14879
STARLINK-2624           
1 48358U 21038F   21221.71285240 -.00000904  00000-0 -41815-4 0  9997
2 48358  53.0525 311.9287 0000855 120.1751 239.9323 15.06393798 14867
STARLINK-2628           
1 48359U 21038G   21221.70916688 -.00001203  00000-0 -61906-4 0  9990
2 48359  53.0541 311.9155 0000961 106.5824 253.5271 15.06391581 14869
STARLINK-2622           
1 48360U 21038H   21221.44009540  .00000347  00000-0  42157-4 0  9996
2 48360  53.0534 313.1151 0001060 164.6351 195.4671 15.06390076 14826
STARLINK-2591           
1 48361U 21038J   21221.69849538 -.00001014  00000-0 -50485-4 0  9990
2 48361  53.0552 312.0071 0000996 126.9165 233.1915 15.05575986 14866
STARLINK-2578           
1 48362U 21038K   21221.43779212  .00000835  00000-0  77990-4 0  9992
2 48362  53.0551 312.1360 0000800 124.6437 235.4627 15.04768000 14842
STARLINK-2626           
1 48363U 21038L   21221.54560187  .00000070  00000-0  23563-4 0  9992
2 48363  53.0550 307.6389 0001156 113.6044 246.5066 15.06390769 14912
STARLINK-2611           
1 48364U 21038M   21221.54096059  .00000026  00000-0  20633-4 0  9991
2 48364  53.0541 307.6582 0000704 113.5036 246.6027 15.06401444 14917
STARLINK-2608           
1 48365U 21038N   21221.71884100  .00000682  00000-0  64661-4 0  9990
2 48365  53.0547 306.8611 0000858 112.2973 247.8107 15.06397388 14940
STARLINK-2631           
1 48366U 21038P   21221.70639547 -.00001167  00000-0 -59461-4 0  9996
2 48366  53.0531 301.9220 0000723 112.7765 247.3301 15.06396994 15002
STARLINK-2643           
1 48367U 21038Q   21221.70271916  .00000923  00000-0  80863-4 0  9996
2 48367  53.0529 301.9343 0000961  91.2334 268.8765 15.06395558 15000
STARLINK-2623           
1 48368U 21038R   21221.72020046 -.00001048  00000-0 -51471-4 0  9999
2 48368  53.0551 301.8590 0000987  87.2510 272.8592 15.06393686 15012
STARLINK-2641           
1 48369U 21038S   21221.69903044  .00000697  00000-0  65688-4 0  9996
2 48369  53.0484 301.9860 0000847  93.7176 266.3910 15.06391332 15001
STARLINK-2621           
1 48370U 21038T   21221.69534886 -.00001121  00000-0 -56436-4 0  9998
2 48370  53.0533 301.9739 0000624 104.6376 255.4682 15.06391787 15009
STARLINK-2589           
1 48371U 21038U   21221.55896834 -.00000743  00000-0 -31019-4 0  9997
2 48371  53.0525 302.5832 0000819 127.9441 232.1622 15.06391378 14987
STARLINK-2572           
1 48372U 21038V   21221.68796909 -.00000911  00000-0 -42295-4 0  9999
2 48372  53.0541 302.0011 0000870 102.7643 257.3443 15.06394567 15009
STARLINK-2609           
1 48373U 21038W   21221.55159826  .00000615  00000-0  60153-4 0  9999
2 48373  53.0532 302.6121 0000891 115.1270 244.9811 15.06394794 14984
STARLINK-2604           
1 48374U 21038X   21221.48155888 -.00000961  00000-0 -45648-4 0  9994
2 48374  53.0544 302.9259 0000953 113.5264 246.5826 15.06391887 14970
STARLINK-2603           
1 48375U 21038Y   21221.41152810 -.00000877  00000-0 -40037-4 0  9993
2 48375  53.0543 303.2434 0000715  97.4434 262.6636 15.06390823 14960
STARLINK-2610           
1 48376U 21038Z   21221.40784492  .00000622  00000-0  60620-4 0  9996
2 48376  53.0533 303.2561 0001026 106.7922 253.3180 15.06396498 14968
STARLINK-2499           
1 48377U 21038AA  21221.40415515  .00000788  00000-0  71791-4 0  9998
2 48377  53.0561 303.2794 0000826  83.0952 277.0131 15.06406812 14966
STARLINK-2526           
1 48378U 21038AB  21221.73221144 -.00002591  00000-0 -15516-3 0  9996
2 48378  53.0565 301.8085 0000855  88.4259 271.6828 15.06391777 15012
STARLINK-2612           
1 48379U 21038AC  21221.59582676  .00000644  00000-0  62116-4 0  9995
2 48379  53.0570 302.4221 0000966 102.6918 257.4179 15.06394424 14991
STARLINK-2614           
1 48380U 21038AD  21221.68702733  .00000693  00000-0  65375-4 0  9999
2 48380  53.0536 302.0064 0000957 110.9685 249.1406 15.06401894 15003
STARLINK-2630           
1 48381U 21038AE  21221.52579436  .00000959  00000-0  83259-4 0  9991
2 48381  53.0582 302.7128 0001125  88.7828 271.3289 15.06399300 14982
STARLINK-2585           
1 48382U 21038AF  21221.65479784 -.00001074  00000-0 -53233-4 0  9991
2 48382  53.0557 302.1543 0001110  97.4601 262.6514 15.06397320 15008
STARLINK-2599           
1 48383U 21038AG  21221.51842212  .00000992  00000-0  85496-4 0  9999
2 48383  53.0483 302.8154 0000939  99.2909 260.8186 15.06395491 16206
STARLINK-2601           
1 48384U 21038AH  21221.71377304  .00000918  00000-0  80513-4 0  9990
2 48384  53.0515 301.8997 0001080  91.1642 268.9471 15.06393187 16239
STARLINK-2598           
1 48385U 21038AJ  21221.71009514 -.00001252  00000-0 -65189-4 0  9992
2 48385  53.0529 301.9064 0000941  97.8403 262.2693 15.06387737 16231
STARLINK-2606           
1 48386U 21038AK  21221.91667824 -.00053769  00000-0 -36171-2 0  9996
2 48386  53.0535 295.9751 0000874  84.0430  29.6394 15.06412365  3603
STARLINK-2600           
1 48387U 21038AL  21221.91667824 -.00028106  00000-0 -18754-2 0  9991
2 48387  53.0528 295.9785 0001303  76.5922 217.1286 15.06399851  3599
STARLINK-2594           
1 48388U 21038AM  21221.91667824 -.00071075  00000-0 -47962-2 0  9998
2 48388  53.0515 295.9764 0000692  46.5703 281.9587 15.06434693  3594
STARLINK-1904           
1 48389U 21038AN  21221.91667824 -.00020886  00000-0 -13877-2 0  9991
2 48389  53.0497 290.9875 0001380  81.3755 314.6707 15.06391884  3638
STARLINK-2586           
1 48390U 21038AP  21221.91667824 -.00020014  00000-0 -13283-2 0  9997
2 48390  53.0518 290.9812 0000989  65.2425 350.8493 15.06406541  3635
STARLINK-2607           
1 48391U 21038AQ  21221.91667824 -.00019430  00000-0 -12894-2 0  9995
2 48391  53.0517 290.9839 0001294  66.8297   9.2502 15.06390824  3630
STARLINK-2605           
1 48392U 21038AR  21221.91667824 -.00019172  00000-0 -12720-2 0  9997
2 48392  53.0520 290.9783 0001357  62.5399  33.5236 15.06390195  3634
STARLINK-2602           
1 48393U 21038AS  21221.91667824 -.00019812  00000-0 -13154-2 0  9991
2 48393  53.0531 290.9756 0001058  53.6763  62.3923 15.06384427 15762
STARLINK-2573           
1 48394U 21038AT  21221.91667824 -.00019684  00000-0 -13067-2 0  9992
2 48394  53.0520 290.9769 0001241  60.8538  75.2029 15.06386711  3629
STARLINK-2574           
1 48395U 21038AU  21221.91667824 -.00059164  00000-0 -39836-2 0  9992
2 48395  53.0521 290.9763 0001151  52.9399 168.2071 15.06424003  3629
STARLINK-2575           
1 48396U 21038AV  21221.91667824 -.00020008  00000-0 -13285-2 0  9998
2 48396  53.0515 290.9760 0001378  67.2689  88.7896 15.06387615  3620
STARLINK-2590           
1 48397U 21038AW  21221.91667824 -.00020557  00000-0 -13645-2 0  9998
2 48397  53.0524 290.9749 0001307  61.7120 114.3260 15.06417981  3620
STARLINK-2588           
1 48398U 21038AX  21221.91667824 -.00021253  00000-0 -14120-2 0  9992
2 48398  53.0525 290.9772 0001450  69.8305 126.2300 15.06403936  3623
STARLINK-2587           
1 48399U 21038AY  21221.91667824 -.00021826  00000-0 -14514-2 0  9996
2 48399  53.0521 290.9773 0001611  70.3466 145.7144 15.06385587 15766
STARLINK-2576           
1 48400U 21038AZ  21221.91667824 -.00022031  00000-0 -14640-2 0  9998
2 48400  53.0515 290.9769 0001115  54.3531 181.5785 15.06418648  3638
STARLINK-2571           
1 48401U 21038BA  21221.91667824 -.00020618  00000-0 -13690-2 0  9992
2 48401  53.0507 290.9871 0001347  84.2025 317.0064 15.06407374  3631
STARLINK-2560           
1 48402U 21038BB  21221.91667824 -.00022443  00000-0 -14930-2 0  9999
2 48402  53.0532 290.9766 0001496  67.2402 188.8344 15.06387366 15768
STARLINK-2561           
1 48403U 21038BC  21221.91667824 -.00037360  00000-0 -25025-2 0  9991
2 48403  53.0517 290.9768 0001365  67.5088 208.5760 15.06398683  3631
STARLINK-2593           
1 48404U 21038BD  21221.91667824 -.00021464  00000-0 -14261-2 0  9990
2 48404  53.0530 290.9771 0001564  71.8583 224.2275 15.06406787  3631
STARLINK-2570           
1 48405U 21038BE  21221.91667824 -.00022364  00000-0 -14866-2 0  9992
2 48405  53.0526 290.9771 0001360  69.9244 246.0284 15.06414956  3632
STARLINK-2568           
1 48406U 21038BF  21221.91667824 -.00021961  00000-0 -14599-2 0  9998
2 48406  53.0516 290.9765 0001268  63.6210 272.3713 15.06401830  3632
